ONEWEB-0363             
1 49289U 21090L   25129.07791259  .00000034  00000+0  52603-4 0  9999
2 49289  87.9291 354.9092 0002144  77.0761 283.0612 13.20772444176966
ONEWEB-0364             
1 49290U 21090M   25129.04001928 -.00000138  00000+0 -37177-3 0  9990
2 49290  87.9291 354.9466 0001895  79.5381 280.5966 13.20770240178092
ONEWEB-0365             
1 49291U 21090N   25129.23483298 -.00000025  00000+0 -94793-4 0  9999
2 49291  87.9251  25.2480 0001735  80.7751 279.3578 13.19726662173144
ONEWEB-0366             
1 49292U 21090P   25129.09821927  .00000033  00000+0  54449-4 0  9990
2 49292  87.9073  10.1005 0001867  80.9993 279.1348 13.14501701174479
ONEWEB-0367             
1 49293U 21090Q   25128.62179077 -.00000051  00000+0 -15685-3 0  9991
2 49293  87.9292 354.9949 0001620  89.0114 271.1205 13.20772524177726
ONEWEB-0368             
1 49294U 21090R   25129.04949276  .00000102  00000+0  21934-3 0  9994
2 49294  87.9292 354.9430 0001728  55.8067 304.3229 13.20774004177639
ONEWEB-0369             
1 49295U 21090S   25129.23007839  .00000010  00000+0 -74850-5 0  9992
2 49295  87.9258  25.2742 0001758  78.8326 281.3005 13.19728060173138
ONEWEB-0370             
1 49296U 21090T   25128.63126348 -.00000001  00000+0 -34826-4 0  9992
2 49296  87.9292 354.9982 0001850  94.9916 265.1428 13.20772695176465
